OBJECT_NAME,OBJECT_ID,EPOCH,MEAN_MOTION,ECCENTRICITY,INCLINATION,RA_OF_ASC_NODE,ARG_OF_PERICENTER,MEAN_ANOMALY,EPHEMERIS_TYPE,CLASSIFICATION_TYPE,NORAD_CAT_ID,ELEMENT_SET_NO,REV_AT_EPOCH,BSTAR,MEAN_MOTION_DOT,MEAN_MOTION_DDOT
SCD 1,1993-009B,2026-07-05T04:34:01.739424,14.46126470,.00417174,24.9693,96.4151,328.7997,165.1767,0,U,22490,999,76372,.91121049E-4,.52E-5,0
TECHSAT 1B (GO-32),1998-043D,2026-07-05T04:29:22.214688,14.24432045,.00018711,99.0075,179.4002,130.7519,229.3822,0,U,25397,999,45389,.57629485E-4,.87E-6,0
SCD 2,1998-060A,2026-07-04T18:53:43.350720,14.45532841,.00165915,24.9964,323.6221,309.7555,199.1161,0,U,25504,999,46287,.7661386E-4,.457E-5,0
DLR-TUBSAT,1999-029B,2026-07-04T23:57:24.379776,14.52431687,.00131318,98.6703,182.0888,298.5421,61.4451,0,U,25757,999,43583,.45534E-4,.137E-5,0
TERRA,1999-068A,2026-07-05T04:01:46.114176,14.61118688,.00029039,97.9446,235.0004,143.1240,291.7934,0,U,25994,999,41223,.12253734E-3,.558E-5,0
MAROC-TUBSAT,2001-056D,2026-07-04T17:41:37.553280,13.70263158,.0020625,99.8092,2.9282,97.8272,284.7558,0,U,27004,999,22859,.24281879E-4,-.25E-6,0
AQUA,2002-022A,2026-07-05T08:16:04.985760,14.62187814,.00007023,98.4287,155.9913,91.5061,69.7527,0,U,27424,999,28592,.222078E-3,.1069E-4,0
SHIYAN-1 (SY-1),2004-012A,2026-07-05T04:29:59.331264,15.34258948,.00042584,97.8683,265.4306,321.9447,38.1493,0,U,28220,999,21385,.74018302E-3,.24519E-3,0
AURA,2004-026A,2026-07-04T20:34:02.755776,14.61357650,.00011867,98.3424,142.4574,87.5666,272.5670,0,U,28376,999,16879,.22535018E-3,.1066E-4,0
IRS-P5 (CARTOSAT-1),2005-017A,2026-07-04T23:54:14.901120,14.91099923,.00019805,97.5304,208.2525,59.3536,300.7878,0,U,28649,999,14647,.1964371E-3,.1894E-4,0
SINAH 1,2005-043D,2026-07-05T05:34:34.176864,14.64171155,.00137083,98.2883,320.6627,215.5244,144.5047,0,U,28893,999,10316,.10281408E-3,.492E-5,0
RESURS-DK 1,2006-021A,2026-07-05T06:42:23.266944,15.13295412,.00066968,69.9335,292.7185,282.2726,77.7691,0,U,29228,999,10531,.17117836E-3,.2947E-4,0
ARIRANG-2 (KOMPSAT-2),2006-031A,2026-07-05T06:26:44.852352,14.64670411,.00151005,97.8310,9.8398,21.6146,84.7981,0,U,29268,999,6412,.27751563E-4,.103E-5,0
LAPAN-TUBSAT,2007-001A,2026-07-05T07:13:12.867168,14.85971991,.00133559,98.1349,185.9340,122.7602,237.4902,0,U,29709,999,5384,.15393032E-3,.1288E-4,0
HAIYANG-1B,2007-010A,2026-07-04T21:42:30.055392,14.31031561,.00141607,98.3505,167.0633,144.3894,215.8238,0,U,31113,999,317,.66704501E-4,.134E-5,0
COSMO-SKYMED 1,2007-023A,2026-07-05T07:32:24.497952,14.97190320,.00011008,97.8851,18.3232,84.0232,276.1115,0,U,31598,999,3250,.24880548E-3,.2817E-4,0
TERRASAR-X,2007-026A,2026-07-04T02:52:37.366752,15.19147925,.00018242,97.4455,192.5852,98.3423,261.8018,0,U,31698,999,5579,.27165187E-4,.503E-5,0
WORLDVIEW-1 (WV-1),2007-041A,2026-07-05T06:40:47.743968,15.24479765,.00009271,97.3895,305.7660,279.1290,80.9843,0,U,32060,999,4563,.4009618E-3,.9785E-4,0
YAOGAN-3,2007-055A,2026-07-05T07:35:49.502688,14.90860517,.00017933,97.8147,216.0159,83.0338,277.1084,0,U,32289,999,857,.5217168E-3,.5086E-4,0
COSMO-SKYMED 2,2007-059A,2026-07-05T07:42:45.822816,14.82161084,.00013437,97.8890,9.6565,91.2437,268.8930,0,U,32376,999,469,.63793912E-4,.456E-5,0
RADARSAT-2,2007-061A,2026-07-05T07:12:18.124128,14.29981602,.00013071,98.5777,192.9741,85.0939,275.0393,0,U,32382,999,96854,.5792096E-4,.106E-5,0
CARTOSAT-2A,2008-021A,2026-07-05T07:26:36.280032,14.79269073,.00131385,97.7617,234.3997,56.6623,303.5845,0,U,32783,999,98148,.20165489E-3,.1451E-4,0
HUANJING 1A (HJ-1A),2008-041A,2026-07-05T07:17:53.411424,14.84031090,.0020626,97.6691,171.4427,79.5043,280.8495,0,U,33320,999,96109,.20585686E-3,.167E-4,0
HUANJING 1B (HJ-1B),2008-041B,2026-07-05T06:45:17.761248,14.83353401,.00376048,97.6529,174.5382,122.4171,238.0690,0,U,33321,999,96109,.20893315E-3,.1682E-4,0
GEOEYE 1,2008-042A,2026-07-05T04:29:21.501888,14.64644096,.00046954,98.1331,259.8998,18.4934,341.6439,0,U,33331,999,95278,.12965044E-3,.642E-5,0
THEOS,2008-049A,2026-07-05T06:53:47.486688,14.20136304,.00011249,98.5556,242.9829,85.4059,274.7246,0,U,33396,999,92053,.15123271E-3,.28E-5,0
COSMO-SKYMED 3,2008-054A,2026-07-05T08:04:17.006016,15.07074828,.00148945,97.8265,45.2065,199.2974,160.7691,0,U,33412,999,95967,.34736164E-3,.5159E-4,0
YAOGAN-4,2008-061A,2026-07-04T18:35:35.083968,14.83237662,.00147544,97.9307,119.1556,19.3177,340.8593,0,U,33446,999,94827,.17774822E-3,.1401E-4,0
GOSAT (IBUKI),2009-002A,2026-07-04T14:13:54.308352,14.67540265,.00012709,98.0905,296.4573,82.4342,277.7007,0,U,33492,999,93401,.59651411E-4,.29E-5,0
DEIMOS-1,2009-041A,2026-07-05T07:06:20.668320,14.75256902,.00025436,97.7427,342.7402,106.0685,254.0805,0,U,35681,999,90955,.10491936E-3,.662E-5,0
