SCD 1                   
1 22490U 93009B   26186.19029791  .00000520  00000+0  91121-4 0  9993
2 22490  24.9693  96.4151 0041717 328.7997 165.1767 14.46126470763726
TECHSAT 1B (GO-32)      
1 25397U 98043D   26186.18706267  .00000087  00000+0  57629-4 0  9997
2 25397  99.0075 179.4002 0001871 130.7519 229.3822 14.24432045453890
SCD 2                   
1 25504U 98060A   26185.78730730  .00000457  00000+0  76614-4 0  9999
2 25504  24.9964 323.6221 0016591 309.7555 199.1161 14.45532841462879
DLR-TUBSAT              
1 25757U 99029B   26185.99819884  .00000137  00000+0  45534-4 0  9998
2 25757  98.6703 182.0888 0013131 298.5421  61.4451 14.52431687435831
TERRA                   
1 25994U 99068A   26186.16789484  .00000558  00000+0  12254-3 0  9995
2 25994  97.9446 235.0004 0002903 143.1240 291.7934 14.61118688412234
MAROC-TUBSAT            
1 27004U 01056D   26185.73724020 -.00000025  00000+0  24282-4 0  9991
2 27004  99.8092   2.9282 0020625  97.8272 284.7558 13.70263158228596
AQUA                    
1 27424U 02022A   26186.34450215  .00001069  00000+0  22208-3 0  9994
2 27424  98.4287 155.9913 0000702  91.5061  69.7527 14.62187814285927
SHIYAN-1 (SY-1)         
1 28220U 04012A   26186.18749226  .00024519  00000+0  74018-3 0  9996
2 28220  97.8683 265.4306 0004258 321.9447  38.1493 15.34258948213858
AURA                    
1 28376U 04026A   26185.85697634  .00001066  00000+0  22535-3 0  9990
2 28376  98.3424 142.4574 0001186  87.5666 272.5670 14.61357650168797
IRS-P5 (CARTOSAT-1)     
1 28649U 05017A   26185.99600580  .00001894  00000+0  19644-3 0  9999
2 28649  97.5304 208.2525 0001980  59.3536 300.7878 14.91099923146474
SINAH 1                 
1 28893U 05043D   26186.23234001  .00000492  00000+0  10281-3 0  9999
2 28893  98.2883 320.6627 0013708 215.5244 144.5047 14.64171155103169
RESURS-DK 1             
1 29228U 06021A   26186.27943596  .00002947  00000+0  17118-3 0  9992
2 29228  69.9335 292.7185 0006696 282.2726  77.7691 15.13295412105310
ARIRANG-2 (KOMPSAT-2)   
1 29268U 06031A   26186.26857468  .00000103  00000+0  27752-4 0  9996
2 29268  97.8310   9.8398 0015100  21.6146  84.7981 14.64670411 64125
LAPAN-TUBSAT            
1 29709U 07001A   26186.30084337  .00001288  00000+0  15393-3 0  9998
2 29709  98.1349 185.9340 0013355 122.7602 237.4902 14.85971991 53841
HAIYANG-1B              
1 31113U 07010A   26185.90451453  .00000134  00000+0  66705-4 0  9995
2 31113  98.3505 167.0633 0014160 144.3894 215.8238 14.31031561  3177
COSMO-SKYMED 1          
1 31598U 07023A   26186.31417243  .00002817  00000+0  24881-3 0  9999
2 31598  97.8851  18.3232 0001100  84.0232 276.1115 14.97190320 32505
TERRASAR-X              
1 31698U 07026A   26185.11987693  .00000503  00000+0  27165-4 0  9990
2 31698  97.4455 192.5852 0001824  98.3423 261.8018 15.19147925 55795
WORLDVIEW-1 (WV-1)      
1 32060U 07041A   26186.27833037  .00009785  00000+0  40096-3 0  9999
2 32060  97.3895 305.7660 0000927 279.1290  80.9843 15.24479765 45639
YAOGAN-3                
1 32289U 07055A   26186.31654517  .00005086  00000+0  52172-3 0  9994
2 32289  97.8147 216.0159 0001793  83.0338 277.1084 14.90860517  8571
COSMO-SKYMED 2          
1 32376U 07059A   26186.32136369  .00000456  00000+0  63794-4 0  9995
2 32376  97.8890   9.6565 0001343  91.2437 268.8930 14.82161084  4692
RADARSAT-2              
1 32382U 07061A   26186.30020977  .00000106  00000+0  57921-4 0  9997
2 32382  98.5777 192.9741 0001307  85.0939 275.0393 14.29981602968544
CARTOSAT-2A             
1 32783U 08021A   26186.31014213  .00001451  00000+0  20165-3 0  9999
2 32783  97.7617 234.3997 0013138  56.6623 303.5845 14.79269073981489
HUANJING 1A (HJ-1A)     
1 33320U 08041A   26186.30409041  .00001670  00000+0  20586-3 0  9995
2 33320  97.6691 171.4427 0020626  79.5043 280.8495 14.84031090961092
HUANJING 1B (HJ-1B)     
1 33321U 08041B   26186.28145557  .00001682  00000+0  20893-3 0  9996
2 33321  97.6529 174.5382 0037604 122.4171 238.0690 14.83353401961095
GEOEYE 1                
1 33331U 08042A   26186.18705442  .00000642  00000+0  12965-3 0  9998
2 33331  98.1331 259.8998 0004695  18.4934 341.6439 14.64644096952788
THEOS                   
1 33396U 08049A   26186.28735517  .00000280  00000+0  15123-3 0  9990
2 33396  98.5556 242.9829 0001124  85.4059 274.7246 14.20136304920534
COSMO-SKYMED 3          
1 33412U 08054A   26186.33630794  .00005159  00000+0  34736-3 0  9993
2 33412  97.8265  45.2065 0014894 199.2974 160.7691 15.07074828959679
YAOGAN-4                
1 33446U 08061A   26185.77471162  .00001401  00000+0  17775-3 0  9997
2 33446  97.9307 119.1556 0014754  19.3177 340.8593 14.83237662948278
GOSAT (IBUKI)           
1 33492U 09002A   26185.59298968  .00000290  00000+0  59651-4 0  9990
2 33492  98.0905 296.4573 0001270  82.4342 277.7007 14.67540265934010
DEIMOS-1                
1 35681U 09041A   26186.29607255  .00000662  00000+0  10492-3 0  9998
2 35681  97.7427 342.7402 0002543 106.0685 254.0805 14.75256902909556
